[{"OBJECT_NAME":"STARLINK-2224","OBJECT_ID":"2021-041W","EPOCH":"2025-12-20T18:44:51.721152","MEAN_MOTION":15.06395538,"ECCENTRICITY":0.0001247,"INCLINATION":53.0538,"RA_OF_ASC_NODE":125.8528,"ARG_OF_PERICENTER":73.7238,"MEAN_ANOMALY":286.3888,"EPHEMERIS_TYPE":0,"CLASSIFICATION_TYPE":"U","NORAD_CAT_ID":48573,"ELEMENT_SET_NO":999,"REV_AT_EPOCH":25330,"BSTAR":2.1318e-5,"MEAN_MOTION_DOT":3.6e-7,"MEAN_MOTION_DDOT":0},{"OBJECT_NAME":"STARLINK-2225","OBJECT_ID":"2021-041X","EPOCH":"2025-12-20T13:14:28.099104","MEAN_MOTION":15.06401029,"ECCENTRICITY":0.0001266,"INCLINATION":53.0566,"RA_OF_ASC_NODE":96.9679,"ARG_OF_PERICENTER":89.5745,"MEAN_ANOMALY":270.5389,"EPHEMERIS_TYPE":0,"CLASSIFICATION_TYPE":"U","NORAD_CAT_ID":48574,"ELEMENT_SET_NO":999,"REV_AT_EPOCH":25369,"BSTAR":0.00013766,"MEAN_MOTION_DOT":1.77e-5,"MEAN_MOTION_DDOT":0},{"OBJECT_NAME":"STARLINK-2227","OBJECT_ID":"2021-041Y","EPOCH":"2025-12-20T07:14:54.876192","MEAN_MOTION":15.0638783,"ECCENTRICITY":0.00015196,"INCLINATION":53.0542,"RA_OF_ASC_NODE":88.3178,"ARG_OF_PERICENTER":90.0812,"MEAN_ANOMALY":270.0352,"EPHEMERIS_TYPE":0,"CLASSIFICATION_TYPE":"U","NORAD_CAT_ID":48575,"ELEMENT_SET_NO":999,"REV_AT_EPOCH":25380,"BSTAR":3.5315617e-5,"MEAN_MOTION_DOT":2.44e-6,"MEAN_MOTION_DDOT":0},{"OBJECT_NAME":"STARLINK-2228","OBJECT_ID":"2021-041Z","EPOCH":"2025-12-20T07:15:30.820320","MEAN_MOTION":15.06401538,"ECCENTRICITY":0.00011739,"INCLINATION":53.0555,"RA_OF_ASC_NODE":102.9991,"ARG_OF_PERICENTER":90.3674,"MEAN_ANOMALY":269.745,"EPHEMERIS_TYPE":0,"CLASSIFICATION_TYPE":"U","NORAD_CAT_ID":48576,"ELEMENT_SET_NO":999,"REV_AT_EPOCH":25359,"BSTAR":4.5737258e-5,"MEAN_MOTION_DOT":4.0e-6,"MEAN_MOTION_DDOT":0},{"OBJECT_NAME":"STARLINK-2231","OBJECT_ID":"2021-041AA","EPOCH":"2025-12-20T16:00:22.015008","MEAN_MOTION":15.0639687,"ECCENTRICITY":0.0001047,"INCLINATION":53.0554,"RA_OF_ASC_NODE":126.6367,"ARG_OF_PERICENTER":84.8844,"MEAN_ANOMALY":275.2264,"EPHEMERIS_TYPE":0,"CLASSIFICATION_TYPE":"U","NORAD_CAT_ID":48577,"ELEMENT_SET_NO":999,"REV_AT_EPOCH":25328,"BSTAR":5.2343e-6,"MEAN_MOTION_DOT":-2.03e-6,"MEAN_MOTION_DDOT":0},{"OBJECT_NAME":"STARLINK-2232","OBJECT_ID":"2021-041AB","EPOCH":"2025-12-20T16:05:44.320704","MEAN_MOTION":15.06385666,"ECCENTRICITY":0.0001378,"INCLINATION":53.0538,"RA_OF_ASC_NODE":126.86,"ARG_OF_PERICENTER":76.1025,"MEAN_ANOMALY":284.0117,"EPHEMERIS_TYPE":0,"CLASSIFICATION_TYPE":"U","NORAD_CAT_ID":48578,"ELEMENT_SET_NO":999,"REV_AT_EPOCH":25328,"BSTAR":-0.00011362,"MEAN_MOTION_DOT":-1.973e-5,"MEAN_MOTION_DDOT":0},{"OBJECT_NAME":"STARLINK-2234","OBJECT_ID":"2021-041AD","EPOCH":"2025-12-20T19:06:45.683712","MEAN_MOTION":15.06392976,"ECCENTRICITY":0.0001196,"INCLINATION":53.0548,"RA_OF_ASC_NODE":100.7932,"ARG_OF_PERICENTER":81.1743,"MEAN_ANOMALY":278.9381,"EPHEMERIS_TYPE":0,"CLASSIFICATION_TYPE":"U","NORAD_CAT_ID":48580,"ELEMENT_SET_NO":999,"REV_AT_EPOCH":25366,"BSTAR":2.5462e-5,"MEAN_MOTION_DOT":9.8e-7,"MEAN_MOTION_DDOT":0},{"OBJECT_NAME":"STARLINK-2235","OBJECT_ID":"2021-041AE","EPOCH":"2025-12-20T11:47:32.668512","MEAN_MOTION":15.06390344,"ECCENTRICITY":0.00010079,"INCLINATION":53.0553,"RA_OF_ASC_NODE":92.1628,"ARG_OF_PERICENTER":88.4565,"MEAN_ANOMALY":271.654,"EPHEMERIS_TYPE":0,"CLASSIFICATION_TYPE":"U","NORAD_CAT_ID":48581,"ELEMENT_SET_NO":999,"REV_AT_EPOCH":25376,"BSTAR":8.4616719e-5,"MEAN_MOTION_DOT":9.79e-6,"MEAN_MOTION_DDOT":0},{"OBJECT_NAME":"STARLINK-2236","OBJECT_ID":"2021-041AF","EPOCH":"2025-12-20T12:56:34.667232","MEAN_MOTION":15.06382501,"ECCENTRICITY":0.0001928,"INCLINATION":53.0559,"RA_OF_ASC_NODE":92.1053,"ARG_OF_PERICENTER":71.8924,"MEAN_ANOMALY":288.2275,"EPHEMERIS_TYPE":0,"CLASSIFICATION_TYPE":"U","NORAD_CAT_ID":48582,"ELEMENT_SET_NO":999,"REV_AT_EPOCH":25376,"BSTAR":9.3223e-5,"MEAN_MOTION_DOT":1.107e-5,"MEAN_MOTION_DDOT":0},{"OBJECT_NAME":"STARLINK-2237","OBJECT_ID":"2021-041AG","EPOCH":"2025-12-20T19:26:00.189024","MEAN_MOTION":15.06390992,"ECCENTRICITY":0.000115,"INCLINATION":53.0571,"RA_OF_ASC_NODE":135.7225,"ARG_OF_PERICENTER":84.2825,"MEAN_ANOMALY":275.8295,"EPHEMERIS_TYPE":0,"CLASSIFICATION_TYPE":"U","NORAD_CAT_ID":48583,"ELEMENT_SET_NO":999,"REV_AT_EPOCH":25317,"BSTAR":-6.1992e-5,"MEAN_MOTION_DOT":-1.204e-5,"MEAN_MOTION_DDOT":0},{"OBJECT_NAME":"STARLINK-2238","OBJECT_ID":"2021-041AH","EPOCH":"2025-12-20T18:48:51.952896","MEAN_MOTION":15.06384719,"ECCENTRICITY":0.0001412,"INCLINATION":53.0562,"RA_OF_ASC_NODE":135.8348,"ARG_OF_PERICENTER":100.9038,"MEAN_ANOMALY":259.211,"EPHEMERIS_TYPE":0,"CLASSIFICATION_TYPE":"U","NORAD_CAT_ID":48584,"ELEMENT_SET_NO":999,"REV_AT_EPOCH":25316,"BSTAR":-7.3404e-6,"MEAN_MOTION_DOT":-3.91e-6,"MEAN_MOTION_DDOT":0},{"OBJECT_NAME":"STARLINK-2241","OBJECT_ID":"2021-041AK","EPOCH":"2025-12-20T15:43:04.712160","MEAN_MOTION":15.06391459,"ECCENTRICITY":0.000136,"INCLINATION":53.0562,"RA_OF_ASC_NODE":136.4162,"ARG_OF_PERICENTER":88.9847,"MEAN_ANOMALY":271.1298,"EPHEMERIS_TYPE":0,"CLASSIFICATION_TYPE":"U","NORAD_CAT_ID":48586,"ELEMENT_SET_NO":999,"REV_AT_EPOCH":25314,"BSTAR":1.4317e-5,"MEAN_MOTION_DOT":-6.8e-7,"MEAN_MOTION_DDOT":0},{"OBJECT_NAME":"STARLINK-2245","OBJECT_ID":"2021-041AN","EPOCH":"2025-12-20T02:28:14.420352","MEAN_MOTION":15.06396275,"ECCENTRICITY":0.00016186,"INCLINATION":53.0579,"RA_OF_ASC_NODE":128.8949,"ARG_OF_PERICENTER":82.2479,"MEAN_ANOMALY":277.8693,"EPHEMERIS_TYPE":0,"CLASSIFICATION_TYPE":"U","NORAD_CAT_ID":48589,"ELEMENT_SET_NO":999,"REV_AT_EPOCH":25320,"BSTAR":2.7574096e-5,"MEAN_MOTION_DOT":1.29e-6,"MEAN_MOTION_DDOT":0},{"OBJECT_NAME":"STARLINK-2249","OBJECT_ID":"2021-041AR","EPOCH":"2025-12-20T18:43:34.983264","MEAN_MOTION":15.06390305,"ECCENTRICITY":0.0001147,"INCLINATION":53.055,"RA_OF_ASC_NODE":136.0845,"ARG_OF_PERICENTER":91.7517,"MEAN_ANOMALY":268.3603,"EPHEMERIS_TYPE":0,"CLASSIFICATION_TYPE":"U","NORAD_CAT_ID":48592,"ELEMENT_SET_NO":999,"REV_AT_EPOCH":25316,"BSTAR":2.4002e-5,"MEAN_MOTION_DOT":7.6e-7,"MEAN_MOTION_DDOT":0},{"OBJECT_NAME":"STARLINK-2250","OBJECT_ID":"2021-041AS","EPOCH":"2025-12-20T19:57:50.930208","MEAN_MOTION":15.06391368,"ECCENTRICITY":0.000148,"INCLINATION":53.0558,"RA_OF_ASC_NODE":135.625,"ARG_OF_PERICENTER":97.5835,"MEAN_ANOMALY":262.5322,"EPHEMERIS_TYPE":0,"CLASSIFICATION_TYPE":"U","NORAD_CAT_ID":48593,"ELEMENT_SET_NO":999,"REV_AT_EPOCH":25317,"BSTAR":1.5669e-5,"MEAN_MOTION_DOT":-4.8e-7,"MEAN_MOTION_DDOT":0},{"OBJECT_NAME":"STARLINK-2251","OBJECT_ID":"2021-041AT","EPOCH":"2025-12-20T14:16:50.433024","MEAN_MOTION":15.06394313,"ECCENTRICITY":0.000131,"INCLINATION":53.0561,"RA_OF_ASC_NODE":106.7733,"ARG_OF_PERICENTER":94.6848,"MEAN_ANOMALY":265.4291,"EPHEMERIS_TYPE":0,"CLASSIFICATION_TYPE":"U","NORAD_CAT_ID":48594,"ELEMENT_SET_NO":999,"REV_AT_EPOCH":25356,"BSTAR":0.00014266,"MEAN_MOTION_DOT":1.844e-5,"MEAN_MOTION_DDOT":0},{"OBJECT_NAME":"STARLINK-2252","OBJECT_ID":"2021-041AU","EPOCH":"2025-12-20T13:09:08.908128","MEAN_MOTION":15.06392182,"ECCENTRICITY":0.0001327,"INCLINATION":53.0543,"RA_OF_ASC_NODE":136.8995,"ARG_OF_PERICENTER":85.3538,"MEAN_ANOMALY":274.7602,"EPHEMERIS_TYPE":0,"CLASSIFICATION_TYPE":"U","NORAD_CAT_ID":48595,"ELEMENT_SET_NO":999,"REV_AT_EPOCH":25440,"BSTAR":5.9267e-7,"MEAN_MOTION_DOT":-2.73e-6,"MEAN_MOTION_DDOT":0}]
