STARLINK-2224           
1 48573U 21041W   25354.78115418  .00000036  00000+0  21318-4 0  9996
2 48573  53.0538 125.8528 0001247  73.7238 286.3888 15.06395538253309
STARLINK-2225           
1 48574U 21041X   25354.55171411  .00001770  00000+0  13766-3 0  9990
2 48574  53.0566  96.9679 0001266  89.5745 270.5389 15.06401029253691
STARLINK-2227           
1 48575U 21041Y   25354.30202403  .00000244  00000+0  35316-4 0  9991
2 48575  53.0542  88.3178 0001519  90.0812 270.0352 15.06387830253809
STARLINK-2228           
1 48576U 21041Z   25354.30244005  .00000400  00000+0  45737-4 0  9998
2 48576  53.0555 102.9991 0001173  90.3674 269.7450 15.06401538253597
STARLINK-2231           
1 48577U 21041AA  25354.66692147 -.00000203  00000+0  52343-5 0  9996
2 48577  53.0554 126.6367 0001047  84.8844 275.2264 15.06396870253287
STARLINK-2232           
1 48578U 21041AB  25354.67065186 -.00001973  00000+0 -11362-3 0  9995
2 48578  53.0538 126.8600 0001378  76.1025 284.0117 15.06385666253280
STARLINK-2234           
1 48580U 21041AD  25354.79636208  .00000098  00000+0  25462-4 0  9992
2 48580  53.0548 100.7932 0001196  81.1743 278.9381 15.06392976253663
STARLINK-2235           
1 48581U 21041AE  25354.49135033  .00000979  00000+0  84617-4 0  9995
2 48581  53.0553  92.1628 0001007  88.4565 271.6540 15.06390344253764
STARLINK-2236           
1 48582U 21041AF  25354.53929013  .00001107  00000+0  93223-4 0  9997
2 48582  53.0559  92.1053 0001928  71.8924 288.2275 15.06382501253765
STARLINK-2237           
1 48583U 21041AG  25354.80972441 -.00001204  00000+0 -61992-4 0  9999
2 48583  53.0571 135.7225 0001150  84.2825 275.8295 15.06390992253172
STARLINK-2238           
1 48584U 21041AH  25354.78393464 -.00000391  00000+0 -73404-5 0  9997
2 48584  53.0562 135.8348 0001412 100.9038 259.2110 15.06384719253164
STARLINK-2241           
1 48586U 21041AK  25354.65491565 -.00000068  00000+0  14317-4 0  9993
2 48586  53.0562 136.4162 0001360  88.9847 271.1298 15.06391459253149
STARLINK-2245           
1 48589U 21041AN  25354.10294468  .00000129  00000+0  27574-4 0  9995
2 48589  53.0579 128.8949 0001618  82.2479 277.8693 15.06396275253202
STARLINK-2249           
1 48592U 21041AR  25354.78026601  .00000076  00000+0  24002-4 0  9999
2 48592  53.0550 136.0845 0001147  91.7517 268.3603 15.06390305253165
STARLINK-2250           
1 48593U 21041AS  25354.83183947 -.00000048  00000+0  15669-4 0  9992
2 48593  53.0558 135.6250 0001480  97.5835 262.5322 15.06391368253171
STARLINK-2251           
1 48594U 21041AT  25354.59502816  .00001844  00000+0  14266-3 0  9991
2 48594  53.0561 106.7733 0001310  94.6848 265.4291 15.06394313253568
STARLINK-2252           
1 48595U 21041AU  25354.54801977 -.00000273  00000+0  59267-6 0  9996
2 48595  53.0543 136.8995 0001327  85.3538 274.7602 15.06392182254409
